*******************************************************************************
Ephemeris / WWW_USER Mon Mar 24 07:21:29 2025 Pasadena, USA      / Horizons    
*******************************************************************************
Target body name: (2018 PM20)                     {source: JPL#2}
Center body name: Earth (399)                     {source: DE441}
Center-site name: Mauna Kea
*******************************************************************************
Start time      : A.D. 2018-Nov-22 03:51:00.0000 UT      
Stop  time      : A.D. 2018-Nov-22 16:25:00.0000 UT      
Step-size       : 1 minutes
*******************************************************************************
Target pole/equ : undefined
Target radii    : undefined                                                    
Center geodetic : 204.5278, 19.8260847, 4.21024   {E-lon(deg),Lat(deg),Alt(km)}
Center cylindric: 204.5278, 6006.35451, 2151.0229 {E-lon(deg),Dxy(km),Dz(km)}
Center pole/equ : ITRF93                          {East-longitude positive}
Center radii    : 6378.137, 6378.137, 6356.752 km {Equator_a, b, pole_c}       
Target primary  : Sun
Vis. interferer : MOON (R_eq= 1737.400) km        {source: DE441}
Rel. light bend : Sun                             {source: DE441}
Rel. lght bnd GM: 1.3271E+11 km^3/s^2                                          
Small-body perts: Yes                             {source: SB441-N16}
Atmos refraction: NO (AIRLESS)
RA format       : HMS
Time format     : CAL 
Calendar mode   : Mixed Julian/Gregorian
RTS-only print  : NO       
EOP file        : eop.250321.p250617                                           
EOP coverage    : DATA-BASED 1962-JAN-20 TO 2025-MAR-21. PREDICTS-> 2025-JUN-16
Units conversion: 1 au= 149597870.700 km, c= 299792.458 km/s, 1 day= 86400.0 s 
Table cut-offs 1: Elevation (-90.0deg=NO ),Airmass (>38.000=NO), Daylight (YES)
Table cut-offs 2: Solar elongation (  0.0,180.0=NO ),Local Hour Angle( 0.0=NO )
Table cut-offs 3: RA/DEC angular rate (     0.0=NO )                           
*******************************************************************************
Initial IAU76/J2000 heliocentric ecliptic osculating elements (au, days, deg.):
  EPOCH=  2458343.5 ! 2018-Aug-13.00 (TDB)         Residual RMS= .089003       
   EC= .5103595829140648   QR= .9783824475456468   TP= 2458372.5495769856      
   OM= 141.729241004527    W=  213.3086535448706   IN= 3.923256746335003       
  Equivalent ICRF heliocentric cartesian coordinates (au, au/d):
   X= 8.000585561647119E-01  Y=-6.125483166279821E-01  Z=-2.634816273742420E-01
  VX= 9.656077190407949E-03 VY= 1.708944028933422E-02 VZ= 5.904161592396531E-03
Asteroid physical parameters (km, seconds, rotational period in hours):        
   GM= n.a.                RAD= n.a.               ROTPER= n.a.                
   H= 26.3                 G= .150                 B-V= n.a.                   
                           ALBEDO= n.a.            STYP= n.a.                  
*******************************************************************************
 Date__(UT)__HR:MN     R.A._________(ICRF)_________DEC
******************************************************
$$SOE
 2018-Nov-22 05:54  m  06 24 19.033108 +09 55 53.13061
 2018-Nov-22 05:55  m  06 24 18.958776 +09 55 53.45241
 2018-Nov-22 05:56  m  06 24 18.884414 +09 55 53.77423
 2018-Nov-22 05:57  m  06 24 18.810023 +09 55 54.09607
 2018-Nov-22 05:58  m  06 24 18.735602 +09 55 54.41793
 2018-Nov-22 05:59  m  06 24 18.661151 +09 55 54.73981
 2018-Nov-22 06:00  m  06 24 18.586670 +09 55 55.06171
 2018-Nov-22 06:01  m  06 24 18.512159 +09 55 55.38362
 2018-Nov-22 06:02  m  06 24 18.437618 +09 55 55.70555
 2018-Nov-22 06:03  m  06 24 18.363047 +09 55 56.02750
 2018-Nov-22 06:04  m  06 24 18.288446 +09 55 56.34947
 2018-Nov-22 06:05  m  06 24 18.213815 +09 55 56.67145
 2018-Nov-22 06:06  m  06 24 18.139154 +09 55 56.99345
 2018-Nov-22 06:07  m  06 24 18.064463 +09 55 57.31546
 2018-Nov-22 06:08  m  06 24 17.989742 +09 55 57.63749
 2018-Nov-22 06:09  m  06 24 17.914991 +09 55 57.95954
 2018-Nov-22 06:10  m  06 24 17.840210 +09 55 58.28160
 2018-Nov-22 06:11  m  06 24 17.765398 +09 55 58.60368
 2018-Nov-22 06:12  m  06 24 17.690556 +09 55 58.92577
 2018-Nov-22 06:13  m  06 24 17.615684 +09 55 59.24787
 2018-Nov-22 06:14  m  06 24 17.540782 +09 55 59.56999
 2018-Nov-22 06:15  m  06 24 17.465850 +09 55 59.89212
 2018-Nov-22 06:16  m  06 24 17.390888 +09 56 00.21426
 2018-Nov-22 06:17  r  06 24 17.315895 +09 56 00.53642
 2018-Nov-22 06:18  m  06 24 17.240872 +09 56 00.85859
 2018-Nov-22 06:19  m  06 24 17.165819 +09 56 01.18077
 2018-Nov-22 06:20  m  06 24 17.090735 +09 56 01.50297
 2018-Nov-22 06:21  m  06 24 17.015621 +09 56 01.82517
 2018-Nov-22 06:22  m  06 24 16.940477 +09 56 02.14739
 2018-Nov-22 06:23  m  06 24 16.865302 +09 56 02.46961
 2018-Nov-22 06:24  m  06 24 16.790098 +09 56 02.79185
 2018-Nov-22 06:25  m  06 24 16.714862 +09 56 03.11410
 2018-Nov-22 06:26  m  06 24 16.639597 +09 56 03.43635
 2018-Nov-22 06:27  m  06 24 16.564301 +09 56 03.75862
 2018-Nov-22 06:28  m  06 24 16.488975 +09 56 04.08090
 2018-Nov-22 06:29  m  06 24 16.413618 +09 56 04.40318
 2018-Nov-22 06:30  m  06 24 16.338231 +09 56 04.72547
 2018-Nov-22 06:31  m  06 24 16.262814 +09 56 05.04778
 2018-Nov-22 06:32  m  06 24 16.187366 +09 56 05.37008
 2018-Nov-22 06:33  m  06 24 16.111888 +09 56 05.69240
 2018-Nov-22 06:34  m  06 24 16.036379 +09 56 06.01472
 2018-Nov-22 06:35  m  06 24 15.960840 +09 56 06.33705
 2018-Nov-22 06:36  m  06 24 15.885271 +09 56 06.65939
 2018-Nov-22 06:37  m  06 24 15.809671 +09 56 06.98173
 2018-Nov-22 06:38  m  06 24 15.734041 +09 56 07.30408
 2018-Nov-22 06:39  m  06 24 15.658380 +09 56 07.62644
 2018-Nov-22 06:40  m  06 24 15.582689 +09 56 07.94880
 2018-Nov-22 06:41  m  06 24 15.506968 +09 56 08.27116
 2018-Nov-22 06:42  m  06 24 15.431216 +09 56 08.59353
 2018-Nov-22 06:43  m  06 24 15.355434 +09 56 08.91590
 2018-Nov-22 06:44  m  06 24 15.279621 +09 56 09.23828
 2018-Nov-22 06:45  m  06 24 15.203778 +09 56 09.56066
 2018-Nov-22 06:46  m  06 24 15.127904 +09 56 09.88305
 2018-Nov-22 06:47  m  06 24 15.052000 +09 56 10.20543
 2018-Nov-22 06:48  m  06 24 14.976066 +09 56 10.52782
 2018-Nov-22 06:49  m  06 24 14.900101 +09 56 10.85021
 2018-Nov-22 06:50  m  06 24 14.824105 +09 56 11.17261
 2018-Nov-22 06:51  m  06 24 14.748080 +09 56 11.49500
 2018-Nov-22 06:52  m  06 24 14.672024 +09 56 11.81740
 2018-Nov-22 06:53  m  06 24 14.595937 +09 56 12.13980
 2018-Nov-22 06:54  m  06 24 14.519820 +09 56 12.46219
 2018-Nov-22 06:55  m  06 24 14.443673 +09 56 12.78459
 2018-Nov-22 06:56  m  06 24 14.367496 +09 56 13.10699
 2018-Nov-22 06:57  m  06 24 14.291288 +09 56 13.42939
 2018-Nov-22 06:58  m  06 24 14.215049 +09 56 13.75178
 2018-Nov-22 06:59  m  06 24 14.138781 +09 56 14.07418
 2018-Nov-22 07:00  m  06 24 14.062482 +09 56 14.39657
 2018-Nov-22 07:01  m  06 24 13.986152 +09 56 14.71897
 2018-Nov-22 07:02  m  06 24 13.909793 +09 56 15.04136
 2018-Nov-22 07:03  m  06 24 13.833403 +09 56 15.36374
 2018-Nov-22 07:04  m  06 24 13.756983 +09 56 15.68613
 2018-Nov-22 07:05  m  06 24 13.680532 +09 56 16.00851
 2018-Nov-22 07:06  m  06 24 13.604051 +09 56 16.33089
 2018-Nov-22 07:07  m  06 24 13.527540 +09 56 16.65327
 2018-Nov-22 07:08  m  06 24 13.450999 +09 56 16.97564
 2018-Nov-22 07:09  m  06 24 13.374428 +09 56 17.29800
 2018-Nov-22 07:10  m  06 24 13.297826 +09 56 17.62037
 2018-Nov-22 07:11  m  06 24 13.221194 +09 56 17.94272
 2018-Nov-22 07:12  m  06 24 13.144532 +09 56 18.26508
 2018-Nov-22 07:13  m  06 24 13.067840 +09 56 18.58742
 2018-Nov-22 07:14  m  06 24 12.991117 +09 56 18.90976
 2018-Nov-22 07:15  m  06 24 12.914365 +09 56 19.23210
 2018-Nov-22 07:16  m  06 24 12.837582 +09 56 19.55442
 2018-Nov-22 07:17  m  06 24 12.760770 +09 56 19.87674
 2018-Nov-22 07:18  m  06 24 12.683927 +09 56 20.19906
 2018-Nov-22 07:19  m  06 24 12.607054 +09 56 20.52136
 2018-Nov-22 07:20  m  06 24 12.530151 +09 56 20.84366
 2018-Nov-22 07:21  m  06 24 12.453218 +09 56 21.16595
 2018-Nov-22 07:22  m  06 24 12.376256 +09 56 21.48823
 2018-Nov-22 07:23  m  06 24 12.299263 +09 56 21.81050
 2018-Nov-22 07:24  m  06 24 12.222240 +09 56 22.13276
 2018-Nov-22 07:25  m  06 24 12.145188 +09 56 22.45502
 2018-Nov-22 07:26  m  06 24 12.068105 +09 56 22.77726
 2018-Nov-22 07:27  m  06 24 11.990993 +09 56 23.09949
 2018-Nov-22 07:28  m  06 24 11.913851 +09 56 23.42171
 2018-Nov-22 07:29  m  06 24 11.836679 +09 56 23.74392
 2018-Nov-22 07:30  m  06 24 11.759477 +09 56 24.06613
 2018-Nov-22 07:31  m  06 24 11.682245 +09 56 24.38831
 2018-Nov-22 07:32  m  06 24 11.604984 +09 56 24.71049
 2018-Nov-22 07:33  m  06 24 11.527693 +09 56 25.03266
 2018-Nov-22 07:34  m  06 24 11.450373 +09 56 25.35481
 2018-Nov-22 07:35  m  06 24 11.373022 +09 56 25.67695
 2018-Nov-22 07:36  m  06 24 11.295643 +09 56 25.99907
 2018-Nov-22 07:37  m  06 24 11.218233 +09 56 26.32119
 2018-Nov-22 07:38  m  06 24 11.140794 +09 56 26.64329
 2018-Nov-22 07:39  m  06 24 11.063326 +09 56 26.96537
 2018-Nov-22 07:40  m  06 24 10.985828 +09 56 27.28744
 2018-Nov-22 07:41  m  06 24 10.908300 +09 56 27.60950
 2018-Nov-22 07:42  m  06 24 10.830743 +09 56 27.93154
 2018-Nov-22 07:43  m  06 24 10.753157 +09 56 28.25356
 2018-Nov-22 07:44  m  06 24 10.675541 +09 56 28.57558
 2018-Nov-22 07:45  m  06 24 10.597896 +09 56 28.89757
 2018-Nov-22 07:46  m  06 24 10.520222 +09 56 29.21955
 2018-Nov-22 07:47  m  06 24 10.442519 +09 56 29.54151
 2018-Nov-22 07:48  m  06 24 10.364786 +09 56 29.86345
 2018-Nov-22 07:49  m  06 24 10.287024 +09 56 30.18538
 2018-Nov-22 07:50  m  06 24 10.209233 +09 56 30.50729
 2018-Nov-22 07:51  m  06 24 10.131413 +09 56 30.82918
 2018-Nov-22 07:52  m  06 24 10.053564 +09 56 31.15105
 2018-Nov-22 07:53  m  06 24 09.975686 +09 56 31.47291
 2018-Nov-22 07:54  m  06 24 09.897779 +09 56 31.79475
 2018-Nov-22 07:55  m  06 24 09.819843 +09 56 32.11656
 2018-Nov-22 07:56  m  06 24 09.741878 +09 56 32.43836
